1 27386U 02009A   10203.26352684 -.00000003  00000-0  15047-4 0  2650
2 27386 098.5493 269.8680 0001116 092.8594 267.2733 14.32247710438760